start=new Date('2021-10-23T00:00:00.000Z').valueOf();
sats=[{"MEAN_MOTION_DDOT":"0.0000000000000","SEMIMAJOR_AXIS":"6925.408","SITE":"AFETR","CENTER_NAME":"EARTH","CLASSIFICATION_TYPE":"U","DECAY_DATE":null,"PERIAPSIS":"543.178","MEAN_MOTION_DOT":"-0.00000330","EPOCH":"2021-10-22T15:47:21.899040","APOAPSIS":"551.368","OBJECT_NAME":"STARLINK-1171","RA_OF_ASC_NODE":"264.9486","EPHEMERIS_TYPE":"0","OBJECT_ID":"2020-006U","BSTAR":"-0.00000309870000","FILE":"3179071","MEAN_MOTION":"15.06380579","MEAN_ELEMENT_THEORY":"SGP4","TIME_SYSTEM":"UTC","ELEMENT_SET_NO":"999","ECCENTRICITY":"0.00059130","REF_FRAME":"TEME","MEAN_ANOMALY":"276.8941","GP_ID":"187932707","RCS_SIZE":"LARGE","NORAD_CAT_ID":"45062","COUNTRY_CODE":"US","TLE_LINE1":"1 45062U 20006U   21295.65789235 -.00000330  00000-0 -30987-5 0  9999","TLE_LINE2":"2 45062  53.0543 264.9486 0005913  83.2721 276.8941 15.06380579 95453","ARG_OF_PERICENTER":"83.2721","LAUNCH_DATE":"2020-01-29","OBJECT_TYPE":"PAYLOAD","PERIOD":"95.593","INCLINATION":"53.0543","REV_AT_EPOCH":"9545"},{"CENTER_NAME":"EARTH","SITE":"AFETR","CLASSIFICATION_TYPE":"U","DECAY_DATE":null,"PERIAPSIS":"298.448","SEMIMAJOR_AXIS":"6677.745","MEAN_MOTION_DDOT":"0.0000139910000","RA_OF_ASC_NODE":"233.4192","EPHEMERIS_TYPE":"0","OBJECT_ID":"2020-006V","FILE":"3179071","MEAN_MOTION":"15.90955347","BSTAR":"0.00028430000000","EPOCH":"2021-10-22T13:15:16.464096","MEAN_MOTION_DOT":"0.00088144","APOAPSIS":"300.773","OBJECT_NAME":"STARLINK-1178","ECCENTRICITY":"0.00017410","REF_FRAME":"TEME","MEAN_ANOMALY":"333.3975","RCS_SIZE":"LARGE","GP_ID":"187931455","NORAD_CAT_ID":"45063","COUNTRY_CODE":"US","MEAN_ELEMENT_THEORY":"SGP4","ELEMENT_SET_NO":"999","TIME_SYSTEM":"UTC","OBJECT_TYPE":"PAYLOAD","LAUNCH_DATE":"2020-01-29","PERIOD":"90.512","INCLINATION":"53.0562","REV_AT_EPOCH":"9588","TLE_LINE1":"1 45063U 20006V   21295.55227389  .00088144  13991-4  28430-3 0  9998","TLE_LINE2":"2 45063  53.0562 233.4192 0001741  26.7140 333.3975 15.90955347 95889","ARG_OF_PERICENTER":"26.7140"},{"CENTER_NAME":"EARTH","SITE":"AFETR","PERIAPSIS":"546.178","CLASSIFICATION_TYPE":"U","DECAY_DATE":null,"MEAN_MOTION_DDOT":"0.0000000000000","SEMIMAJOR_AXIS":"6925.345","RA_OF_ASC_NODE":"245.1880","EPHEMERIS_TYPE":"0","FILE":"3179071","MEAN_MOTION":"15.06401224","BSTAR":"0.00006508100000","OBJECT_ID":"2020-006W","MEAN_MOTION_DOT":"0.00000688","EPOCH":"2021-10-22T14:30:21.547584","OBJECT_NAME":"STARLINK-1133","APOAPSIS":"548.242","ECCENTRICITY":"0.00014900","MEAN_ANOMALY":"284.1189","REF_FRAME":"TEME","COUNTRY_CODE":"US","GP_ID":"187931705","RCS_SIZE":"LARGE","NORAD_CAT_ID":"45064","TIME_SYSTEM":"UTC","MEAN_ELEMENT_THEORY":"SGP4","ELEMENT_SET_NO":"999","LAUNCH_DATE":"2020-01-29","OBJECT_TYPE":"PAYLOAD","INCLINATION":"53.0535","PERIOD":"95.592","REV_AT_EPOCH":"9572","TLE_LINE1":"1 45064U 20006W   21295.60441606  .00000688  00000-0  65081-4 0  9999","TLE_LINE2":"2 45064  53.0535 245.1880 0001490  75.9966 284.1189 15.06401224 95727","ARG_OF_PERICENTER":"75.9966"},{"ECCENTRICITY":"0.00015710","REF_FRAME":"TEME","MEAN_ANOMALY":"284.6967","NORAD_CAT_ID":"45065","GP_ID":"187900107","RCS_SIZE":"LARGE","COUNTRY_CODE":"US","TIME_SYSTEM":"UTC","MEAN_ELEMENT_THEORY":"SGP4","ELEMENT_SET_NO":"999","LAUNCH_DATE":"2020-01-29","OBJECT_TYPE":"PAYLOAD","PERIOD":"95.591","INCLINATION":"53.0547","REV_AT_EPOCH":"9567","TLE_LINE1":"1 45065U 20006X   21295.27636557 -.00000114  00000-0  11229-4 0  9994","TLE_LINE2":"2 45065  53.0547 246.6762 0001571  75.4196 284.6967 15.06412478 95672","ARG_OF_PERICENTER":"75.4196","SITE":"AFETR","CENTER_NAME":"EARTH","CLASSIFICATION_TYPE":"U","DECAY_DATE":null,"PERIAPSIS":"546.087","MEAN_MOTION_DDOT":"0.0000000000000","SEMIMAJOR_AXIS":"6925.310","RA_OF_ASC_NODE":"246.6762","EPHEMERIS_TYPE":"0","OBJECT_ID":"2020-006X","MEAN_MOTION":"15.06412478","FILE":"3178676","BSTAR":"0.00001122900000","MEAN_MOTION_DOT":"-0.00000114","EPOCH":"2021-10-22T06:37:57.985248","OBJECT_NAME":"STARLINK-1139","APOAPSIS":"548.263"},{"OBJECT_ID":"2020-006Y","MEAN_MOTION":"15.06408007","FILE":"3179071","BSTAR":"0.00020252000000","EPHEMERIS_TYPE":"0","RA_OF_ASC_NODE":"244.7028","OBJECT_NAME":"STARLINK-1145","APOAPSIS":"548.292","EPOCH":"2021-10-22T17:09:35.631936","MEAN_MOTION_DOT":"0.00002737","CLASSIFICATION_TYPE":"U","DECAY_DATE":null,"PERIAPSIS":"546.086","SITE":"AFETR","CENTER_NAME":"EARTH","SEMIMAJOR_AXIS":"6925.324","MEAN_MOTION_DDOT":"0.0000000000000","REV_AT_EPOCH":"9573","PERIOD":"95.592","INCLINATION":"53.0548","OBJECT_TYPE":"PAYLOAD","LAUNCH_DATE":"2020-01-29","ARG_OF_PERICENTER":"72.0309","TLE_LINE2":"2 45066  53.0548 244.7028 0001593  72.0309 288.0853 15.06408007 95733","TLE_LINE1":"1 45066U 20006Y   21295.71499574  .00002737  00000-0  20252-3 0  9997","GP_ID":"187932208","RCS_SIZE":"LARGE","NORAD_CAT_ID":"45066","COUNTRY_CODE":"US","REF_FRAME":"TEME","MEAN_ANOMALY":"288.0853","ECCENTRICITY":"0.00015930","TIME_SYSTEM":"UTC","MEAN_ELEMENT_THEORY":"SGP4","ELEMENT_SET_NO":"999"},{"TLE_LINE2":"2 45067  53.0535 245.2211 0001901  67.2464 292.8726 15.06397866 95722","TLE_LINE1":"1 45067U 20006Z   21295.59704215  .00001250  00000-0  10284-3 0  9998","ARG_OF_PERICENTER":"67.2464","PERIOD":"95.592","INCLINATION":"53.0535","LAUNCH_DATE":"2020-01-29","OBJECT_TYPE":"PAYLOAD","REV_AT_EPOCH":"9572","MEAN_ELEMENT_THEORY":"SGP4","TIME_SYSTEM":"UTC","ELEMENT_SET_NO":"999","ECCENTRICITY":"0.00019010","NORAD_CAT_ID":"45067","GP_ID":"187930956","RCS_SIZE":"LARGE","COUNTRY_CODE":"US","REF_FRAME":"TEME","MEAN_ANOMALY":"292.8726","OBJECT_NAME":"STARLINK-1150","APOAPSIS":"548.537","MEAN_MOTION_DOT":"0.00001250","EPOCH":"2021-10-22T14:19:44.441760","RA_OF_ASC_NODE":"245.2211","OBJECT_ID":"2020-006Z","FILE":"3179071","MEAN_MOTION":"15.06397866","BSTAR":"0.00010284000000","EPHEMERIS_TYPE":"0","SEMIMAJOR_AXIS":"6925.355","MEAN_MOTION_DDOT":"0.0000000000000","CENTER_NAME":"EARTH","SITE":"AFETR","DECAY_DATE":null,"CLASSIFICATION_TYPE":"U","PERIAPSIS":"545.904"},{"ELEMENT_SET_NO":"999","TIME_SYSTEM":"UTC","MEAN_ELEMENT_THEORY":"SGP4","COUNTRY_CODE":"US","GP_ID":"187931206","NORAD_CAT_ID":"45068","RCS_SIZE":"LARGE","MEAN_ANOMALY":"281.8527","REF_FRAME":"TEME","ECCENTRICITY":"0.00015830","ARG_OF_PERICENTER":"78.2639","TLE_LINE2":"2 45068  53.0544 245.2865 0001583  78.2639 281.8527 15.06390642 95711","TLE_LINE1":"1 45068U 20006AA  21295.58599649  .00000668  00000-0  63751-4 0  9991","REV_AT_EPOCH":"9571","INCLINATION":"53.0544","PERIOD":"95.593","LAUNCH_DATE":"2020-01-29","OBJECT_TYPE":"PAYLOAD","MEAN_MOTION_DDOT":"0.0000000000000","SEMIMAJOR_AXIS":"6925.377","PERIAPSIS":"546.146","DECAY_DATE":null,"CLASSIFICATION_TYPE":"U","SITE":"AFETR","CENTER_NAME":"EARTH","OBJECT_NAME":"STARLINK-1161","APOAPSIS":"548.339","MEAN_MOTION_DOT":"0.00000668","EPOCH":"2021-10-22T14:03:50.096736","FILE":"3179071","BSTAR":"0.00006375100000","MEAN_MOTION":"15.06390642","OBJECT_ID":"2020-006AA","EPHEMERIS_TYPE":"0","RA_OF_ASC_NODE":"245.2865"},{"OBJECT_NAME":"STARLINK-1167","APOAPSIS":"548.276","EPOCH":"2021-10-22T13:31:59.076480","MEAN_MOTION_DOT":"-0.00000469","MEAN_MOTION":"15.06387634","FILE":"3179071","BSTAR":"-0.00001256800000","OBJECT_ID":"2020-006AD","EPHEMERIS_TYPE":"0","RA_OF_ASC_NODE":"245.3799","MEAN_MOTION_DDOT":"0.0000000000000","SEMIMAJOR_AXIS":"6925.386","PERIAPSIS":"546.227","DECAY_DATE":null,"CLASSIFICATION_TYPE":"U","SITE":"AFETR","CENTER_NAME":"EARTH","ARG_OF_PERICENTER":"77.2370","TLE_LINE2":"2 45071  53.0547 245.3799 0001480  77.2370 282.8784 15.06387634 95715","TLE_LINE1":"1 45071U 20006AD  21295.56387820 -.00000469  00000-0 -12568-4 0  9990","REV_AT_EPOCH":"9571","INCLINATION":"53.0547","PERIOD":"95.593","OBJECT_TYPE":"PAYLOAD","LAUNCH_DATE":"2020-01-29","MEAN_ELEMENT_THEORY":"SGP4","TIME_SYSTEM":"UTC","ELEMENT_SET_NO":"999","COUNTRY_CODE":"US","RCS_SIZE":"LARGE","GP_ID":"187931958","NORAD_CAT_ID":"45071","MEAN_ANOMALY":"282.8784","REF_FRAME":"TEME","ECCENTRICITY":"0.00014800"},{"MEAN_MOTION_DDOT":"0.0000000000000","SEMIMAJOR_AXIS":"6925.369","DECAY_DATE":null,"CLASSIFICATION_TYPE":"U","PERIAPSIS":"546.149","SITE":"AFETR","CENTER_NAME":"EARTH","OBJECT_NAME":"STARLINK-1168","APOAPSIS":"548.319","MEAN_MOTION_DOT":"0.00001392","EPOCH":"2021-10-22T13:37:17.020704","OBJECT_ID":"2020-006AE","BSTAR":"0.00011234000000","FILE":"3179071","MEAN_MOTION":"15.06393326","EPHEMERIS_TYPE":"0","RA_OF_ASC_NODE":"245.3656","MEAN_ELEMENT_THEORY":"SGP4","TIME_SYSTEM":"UTC","ELEMENT_SET_NO":"999","GP_ID":"187932708","RCS_SIZE":"LARGE","NORAD_CAT_ID":"45072","COUNTRY_CODE":"US","REF_FRAME":"TEME","MEAN_ANOMALY":"290.7162","ECCENTRICITY":"0.00015670","ARG_OF_PERICENTER":"69.3995","TLE_LINE2":"2 45072  53.0527 245.3656 0001567  69.3995 290.7162 15.06393326 95710","TLE_LINE1":"1 45072U 20006AE  21295.56755811  .00001392  00000-0  11234-3 0  9992","REV_AT_EPOCH":"9571","PERIOD":"95.593","INCLINATION":"53.0527","LAUNCH_DATE":"2020-01-29","OBJECT_TYPE":"PAYLOAD"},{"MEAN_MOTION_DDOT":"0.0000000000000","SEMIMAJOR_AXIS":"6925.385","DECAY_DATE":null,"CLASSIFICATION_TYPE":"U","PERIAPSIS":"546.114","SITE":"AFETR","CENTER_NAME":"EARTH","EPOCH":"2021-10-22T14:14:26.672928","MEAN_MOTION_DOT":"-0.00000392","APOAPSIS":"548.387","OBJECT_NAME":"STARLINK-1170","EPHEMERIS_TYPE":"0","OBJECT_ID":"2020-006AF","FILE":"3179071","BSTAR":"-0.00000739720000","MEAN_MOTION":"15.06387968","RA_OF_ASC_NODE":"245.2386","ELEMENT_SET_NO":"999","TIME_SYSTEM":"UTC","MEAN_ELEMENT_THEORY":"SGP4","REF_FRAME":"TEME","MEAN_ANOMALY":"283.5223","GP_ID":"187931456","RCS_SIZE":"LARGE","NORAD_CAT_ID":"45073","COUNTRY_CODE":"US","ECCENTRICITY":"0.00016410","ARG_OF_PERICENTER":"76.5948","TLE_LINE1":"1 45073U 20006AF  21295.59336427 -.00000392  00000-0 -73972-5 0  9994","TLE_LINE2":"2 45073  53.0538 245.2386 0001641  76.5948 283.5223 15.06387968 95716","REV_AT_EPOCH":"9571","LAUNCH_DATE":"2020-01-29","OBJECT_TYPE":"PAYLOAD","PERIOD":"95.593","INCLINATION":"53.0538"}];
